PROBA-1                 
1 26958U 01049B   26176.56644131  .00003197  00000+0  20751-3 0  9993
2 26958  97.9604 185.3909 0056376  94.4809 266.2861 15.07529080344888
CUTE-1 (CO-55)          
1 27844U 03031E   26176.53717468  .00000284  00000+0  14177-3 0  9991
2 27844  98.6736 184.9911 0010043 154.4508 205.7169 14.24340467192865
CUBESAT XI-IV (CO-57)   
1 27848U 03031J   26176.52982313  .00000243  00000+0  12557-3 0  9992
2 27848  98.6767 184.6898 0009568 172.4685 187.6639 14.23624963192562
APRIZESAT 4             
1 35684U 09041D   26176.14652464  .00000593  00000+0  77388-4 0  9997
2 35684  98.1409 251.6256 0042011 296.5870  63.1042 14.83888656912545
APRIZESAT 3             
1 35686U 09041F   26176.39137990  .00001200  00000+0  10807-3 0  9996
2 35686  98.2074 330.0086 0062608  41.0217 319.5687 14.96266472917606
PROBA-2                 
1 36037U 09059B   26176.49353525  .00000196  00000+0  56265-4 0  9993
2 36037  98.2452 359.7311 0011973 253.6382 106.3499 14.54865679882735
APRIZESAT 5             
1 37792U 11044E   26176.38449797  .00001019  00000+0  13587-3 0  9998
2 37792  98.2452 109.6572 0051661 337.8881  22.0102 14.81092175800000
APRIZESAT 6             
1 37793U 11044F   26176.50094372  .00000760  00000+0  11417-3 0  9990
2 37793  98.2358  87.1701 0044331  60.2541 112.5166 14.76927743798379
PROBA-V                 
1 39159U 13021A   26176.48303704  .00000079  00000+0  52476-4 0  9998
2 39159  98.3588 154.6803 0005389 104.4441 255.7337 14.23598749682291
APRIZESAT 7             
1 39416U 13066A   26176.40542617  .00001078  00000+0  11188-3 0  9997
2 39416  97.7710 129.5072 0035706 181.5549 178.5565 14.91579164682455
APRIZESAT 8             
1 39425U 13066K   26176.41455345  .00000837  00000+0  96595-4 0  9997
2 39425  97.8222 123.7678 0044358 258.5397 101.0836 14.87666036680899
BUGSAT-1 (TITA)         
1 40014U 14033E   26176.55293619  .00006930  00000+0  36435-3 0  9993
2 40014  98.0426 269.5920 0028683 150.1462 210.1413 15.15670317657106
SAUDISAT 4              
1 40016U 14033G   26176.36963145  .00000581  00000+0  83148-4 0  9992
2 40016  97.7591 322.2215 0045820  48.1027 312.4079 14.79554247647280
APRIZESAT 9             
1 40018U 14033J   26176.35250350  .00000707  00000+0  11101-3 0  9999
2 40018  97.9069 309.3519 0066337 172.8818 187.3349 14.74225310644766
APRIZESAT 10            
1 40019U 14033K   26176.35796323  .00000473  00000+0  82286-4 0  9998
2 40019  97.9658 303.1356 0077507 247.2861 112.0140 14.70889660643457
TECHDEMOSAT-1 (TDS-1)   
1 40076U 14037H   26176.55571684  .00008879  00000+0  50120-3 0  9997
2 40076  98.3814 169.5984 0004925 227.5309 132.5504 15.13406956649494
TECHNOSAT               
1 42829U 17042E   26176.42726298  .00003180  00000+0  22735-3 0  9994
2 42829  97.4294 333.7723 0019334  68.6508 291.6781 15.05007848487947
FLYING LAPTOP           
1 42831U 17042G   26176.58425787  .00003160  00000+0  24975-3 0  9999
2 42831  97.4721 331.7960 0019945  94.9706 265.3796 15.01195026487717
HAWK-A                  
1 43765U 18099H   26175.89551820  .00006880  00000+0  27669-3 0  9995
2 43765  97.3914 228.0308 0033112 257.2937 102.4599 15.24721850414271
HAWK-B                  
1 43794U 18099AN  26176.45189916  .00006545  00000+0  27868-3 0  9992
2 43794  97.3964 227.9777 0030223 274.2790  85.4993 15.22906092414293
HAWK-C                  
1 43799U 18099AT  26176.11650248  .00008490  00000+0  30484-3 0  9990
2 43799  97.3891 229.2004 0038759 256.4332 103.2589 15.28202356415122
SALSAT                  
1 46495U 20068K   26176.51768004  .00008873  00000+0  30898-3 0  9993
2 46495  97.8852 180.0899 0007802 272.5783  87.4563 15.29908924316636
HAWK-2C                 
1 47502U 21006CT  26176.10686700  .00007387  00000+0  22144-3 0  9997
2 47502  97.2280 220.2588 0007554 159.4355 200.7194 15.34750490300710
HAWK-2A                 
1 47505U 21006CW  26176.10928270  .00007311  00000+0  21910-3 0  9998
2 47505  97.2324 220.9437 0007006 162.1843 197.9648 15.34764970300716
HAWK-2B                 
1 47508U 21006CZ  26176.56070073  .00009126  00000+0  27188-3 0  9999
2 47508  97.2191 219.7043 0007637 159.4820 200.6732 15.34873485300789
HAWK-3B                 
1 48931U 21059BE  26176.54686237  .00053460  00000+0  44001-3 0  9994
2 48931  97.6658  14.0496 0003139 286.2651  73.8265 15.70242469279164
HAWK-3C                 
1 48948U 21059BX  26176.54654006  .00056277  00000+0  46291-3 0  9993
2 48948  97.6777  19.7495 0003389 288.7890  71.3004 15.70244962279168
HAWK-3A                 
1 48957U 21059CG  26176.54639260  .00054935  00000+0  45213-3 0  9990
2 48957  97.6722  16.9475 0003377 289.9026  70.1871 15.70236169279165
HAWK-5C                 
1 52754U 22057Y   26176.42848268  .00022086  00000+0  37267-3 0  9998
2 52754  97.6603 336.6286 0004407  56.8982 303.2692 15.51661736227628
HAWK-5B                 
1 52756U 22057AA  26176.42832133  .00022607  00000+0  38130-3 0  9993
2 52756  97.6611 334.9786 0005050  49.5024 310.6667 15.51665124227625
